{
  "type": "FeatureCollection",
  "features": [
    {
      "type": "Feature",
      "properties": {
        "norad_id": 44333,
        "name": "AT&T T-16",
        "group": "intelsat",
        "lat": 0.028730144868609094,
        "lon": 98.30148120561391,
        "alt_km": 35785.044567004355,
        "timestamp": "2025-12-25T07:00:33.710389+00:00",
        "meta_object_name": "AT&T T-16",
        "meta_object_id": "2019-034A",
        "meta_epoch": "2025-12-23T22:55:25.672800",
        "meta_mean_motion": 1.00268558,
        "meta_eccentricity": 6.686e-05,
        "meta_inclination": 0.0228,
        "meta_ra_of_asc_node": 67.9518,
        "meta_arg_of_pericenter": 76.4171,
        "meta_mean_anomaly": 191.3588,
        "meta_ephemeris_type": 0,
        "meta_classification_type": "U",
        "meta_norad_cat_id": 44333,
        "meta_element_set_no": 999,
        "meta_rev_at_epoch": 2387,
        "meta_bstar": 0,
        "meta_mean_motion_dot": -9.4e-07,
        "meta_mean_motion_ddot": 0,
        "tle_line1": "1 44333U 19034A   25357.95515825 -.00000094  00000+0  00000+0 0  9998",
        "tle_line2": "2 44333   0.0228  67.9518 0000668  76.4171 191.3588  1.00268558 23873"
      },
      "geometry": {
        "type": "Point",
        "coordinates": [
          98.30148120561391,
          0.028730144868609094
        ]
      }
    },
    {
      "type": "Feature",
      "properties": {
        "norad_id": 44476,
        "name": "INTELSAT 39 (IS-39)",
        "group": "intelsat",
        "lat": -0.038507696812247444,
        "lon": -98.89579070780322,
        "alt_km": 35790.32802275299,
        "timestamp": "2025-12-25T07:00:33.710401+00:00",
        "meta_object_name": "INTELSAT 39 (IS-39)",
        "meta_object_id": "2019-049B",
        "meta_epoch": "2025-12-24T22:24:13.136832",
        "meta_mean_motion": 1.00273411,
        "meta_eccentricity": 0.00011708,
        "meta_inclination": 0.0207,
        "meta_ra_of_asc_node": 15.1328,
        "meta_arg_of_pericenter": 48.4126,
        "meta_mean_anomaly": 68.1281,
        "meta_ephemeris_type": 0,
        "meta_classification_type": "U",
        "meta_norad_cat_id": 44476,
        "meta_element_set_no": 999,
        "meta_rev_at_epoch": 2338,
        "meta_bstar": 0,
        "meta_mean_motion_dot": 0,
        "meta_mean_motion_ddot": 0,
        "tle_line1": "1 44476U 19049B   25358.93348538  .00000000  00000+0  00000+0 0  9992",
        "tle_line2": "2 44476   0.0207  15.1328 0001170  48.4126  68.1281  1.00273411 23381"
      },
      "geometry": {
        "type": "Point",
        "coordinates": [
          -98.89579070780322,
          -0.038507696812247444
        ]
      }
    },
    {
      "type": "Feature",
      "properties": {
        "norad_id": 46114,
        "name": "GALAXY 30 (G-30)",
        "group": "intelsat",
        "lat": 0.03089149258349758,
        "lon": 74.19250453352362,
        "alt_km": 35794.82607404739,
        "timestamp": "2025-12-25T07:00:33.710413+00:00",
        "meta_object_name": "GALAXY 30 (G-30)",
        "meta_object_id": "2020-056C",
        "meta_epoch": "2025-12-24T14:13:04.643040",
        "meta_mean_motion": 1.00271053,
        "meta_eccentricity": 0.00021373,
        "meta_inclination": 0.0158,
        "meta_ra_of_asc_node": 331.484,
        "meta_arg_of_pericenter": 301.012,
        "meta_mean_anomaly": 269.1362,
        "meta_ephemeris_type": 0,
        "meta_classification_type": "U",
        "meta_norad_cat_id": 46114,
        "meta_element_set_no": 999,
        "meta_rev_at_epoch": 1954,
        "meta_bstar": 0,
        "meta_mean_motion_dot": 5.8e-07,
        "meta_mean_motion_ddot": 0,
        "tle_line1": "1 46114U 20056C   25358.59241485  .00000058  00000+0  00000+0 0  9991",
        "tle_line2": "2 46114   0.0158 331.4840 0002137 301.0120 269.1362  1.00271053 19542"
      },
      "geometry": {
        "type": "Point",
        "coordinates": [
          74.19250453352362,
          0.03089149258349758
        ]
      }
    },
    {
      "type": "Feature",
      "properties": {
        "norad_id": 54026,
        "name": "GALAXY 33 (G-33)",
        "group": "intelsat",
        "lat": 0.02231751825445083,
        "lon": 66.20271237977126,
        "alt_km": 35792.44686199971,
        "timestamp": "2025-12-25T07:00:33.710425+00:00",
        "meta_object_name": "GALAXY 33 (G-33)",
        "meta_object_id": "2022-128A",
        "meta_epoch": "2025-12-24T04:31:51.326400",
        "meta_mean_motion": 1.00272122,
        "meta_eccentricity": 0.0001643,
        "meta_inclination": 0.0126,
        "meta_ra_of_asc_node": 315.9231,
        "meta_arg_of_pericenter": 309.5058,
        "meta_mean_anomaly": 122.5078,
        "meta_ephemeris_type": 0,
        "meta_classification_type": "U",
        "meta_norad_cat_id": 54026,
        "meta_element_set_no": 999,
        "meta_rev_at_epoch": 1198,
        "meta_bstar": 0,
        "meta_mean_motion_dot": 1e-06,
        "meta_mean_motion_ddot": 0,
        "tle_line1": "1 54026U 22128A   25358.18878850  .00000100  00000+0  00000+0 0  9999",
        "tle_line2": "2 54026   0.0126 315.9231 0001643 309.5058 122.5078  1.00272122 11987"
      },
      "geometry": {
        "type": "Point",
        "coordinates": [
          66.20271237977126,
          0.02231751825445083
        ]
      }
    },
    {
      "type": "Feature",
      "properties": {
        "norad_id": 54027,
        "name": "GALAXY 34 (G-34)",
        "group": "intelsat",
        "lat": 0.03953968230049111,
        "lon": 70.23199554383525,
        "alt_km": 35793.69809699415,
        "timestamp": "2025-12-25T07:00:33.710436+00:00",
        "meta_object_name": "GALAXY 34 (G-34)",
        "meta_object_id": "2022-128B",
        "meta_epoch": "2025-12-24T13:27:04.950144",
        "meta_mean_motion": 1.00269797,
        "meta_eccentricity": 0.00017445,
        "meta_inclination": 0.0224,
        "meta_ra_of_asc_node": 357.4113,
        "meta_arg_of_pericenter": 268.0239,
        "meta_mean_anomaly": 260.7121,
        "meta_ephemeris_type": 0,
        "meta_classification_type": "U",
        "meta_norad_cat_id": 54027,
        "meta_element_set_no": 999,
        "meta_rev_at_epoch": 1216,
        "meta_bstar": 0,
        "meta_mean_motion_dot": 0,
        "meta_mean_motion_ddot": 0,
        "tle_line1": "1 54027U 22128B   25358.56047396  .00000000  00000+0  00000+0 0  9994",
        "tle_line2": "2 54027   0.0224 357.4113 0001744 268.0239 260.7121  1.00269797 12168"
      },
      "geometry": {
        "type": "Point",
        "coordinates": [
          70.23199554383525,
          0.03953968230049111
        ]
      }
    },
    {
      "type": "Feature",
      "properties": {
        "norad_id": 54243,
        "name": "GALAXY 31 (G-31)",
        "group": "intelsat",
        "lat": 0.011602370041871746,
        "lon": 78.1903749345797,
        "alt_km": 35791.99977223415,
        "timestamp": "2025-12-25T07:00:33.710448+00:00",
        "meta_object_name": "GALAXY 31 (G-31)",
        "meta_object_id": "2022-153A",
        "meta_epoch": "2025-12-24T14:14:12.035040",
        "meta_mean_motion": 1.00271389,
        "meta_eccentricity": 0.00015241,
        "meta_inclination": 0.025,
        "meta_ra_of_asc_node": 248.306,
        "meta_arg_of_pericenter": 34.989,
        "meta_mean_anomaly": 262.6161,
        "meta_ephemeris_type": 0,
        "meta_classification_type": "U",
        "meta_norad_cat_id": 54243,
        "meta_element_set_no": 999,
        "meta_rev_at_epoch": 538,
        "meta_bstar": 0,
        "meta_mean_motion_dot": 3.4e-07,
        "meta_mean_motion_ddot": 0,
        "tle_line1": "1 54243U 22153A   25358.59319485  .00000034  00000+0  00000+0 0  9993",
        "tle_line2": "2 54243   0.0250 248.3060 0001524  34.9890 262.6161  1.00271389  5386"
      },
      "geometry": {
        "type": "Point",
        "coordinates": [
          78.1903749345797,
          0.011602370041871746
        ]
      }
    },
    {
      "type": "Feature",
      "properties": {
        "norad_id": 54244,
        "name": "GALAXY 32 (G-32)",
        "group": "intelsat",
        "lat": 0.03092280007444567,
        "lon": 108.19576164757815,
        "alt_km": 35793.44662710466,
        "timestamp": "2025-12-25T07:00:33.710460+00:00",
        "meta_object_name": "GALAXY 32 (G-32)",
        "meta_object_id": "2022-153B",
        "meta_epoch": "2025-12-24T09:22:58.424736",
        "meta_mean_motion": 1.00271076,
        "meta_eccentricity": 0.00019303,
        "meta_inclination": 0.0094,
        "meta_ra_of_asc_node": 17.9,
        "meta_arg_of_pericenter": 299.4695,
        "meta_mean_anomaly": 185.5393,
        "meta_ephemeris_type": 0,
        "meta_classification_type": "U",
        "meta_norad_cat_id": 54244,
        "meta_element_set_no": 999,
        "meta_rev_at_epoch": 1139,
        "meta_bstar": 0,
        "meta_mean_motion_dot": -1.53e-06,
        "meta_mean_motion_ddot": 0,
        "tle_line1": "1 54244U 22153B   25358.39095399 -.00000153  00000+0  00000+0 0  9990",
        "tle_line2": "2 54244   0.0094  17.9000 0001930 299.4695 185.5393  1.00271076 11390"
      },
      "geometry": {
        "type": "Point",
        "coordinates": [
          108.19576164757815,
          0.03092280007444567
        ]
      }
    }
  ]
}